STARLINK-31070          
1 58639U 23203X   26068.01410120 -.00000845  00000+0 -21215-4 0  9995
2 58639  42.9993  71.2821 0000906 192.3964 167.6865 15.27571827123458
FLOCK 4G-7              
1 62624U 25009R   26068.79996108  .00011422  00000+0  43168-3 0  9991
2 62624  97.3984 150.8270 0001396 336.9783  23.1393 15.27141471 63725
